ORBCOMM FM103           
1 40091U 14040F   24119.56112533  .00001265  00000+0  31877-3 0  9998
2 40091  47.0032 173.4913 0002022 206.7623 153.3158 14.56530727503624
ORBCOMM FM114           
1 41179U 15081A   24119.59489866  .00001742  00000+0  42470-3 0  9992
2 41179  47.0015  82.6170 0002128 259.5560 100.5086 14.56551165443998
ORBCOMM FM119           
1 41180U 15081B   24119.08455896  .00001944  00000+0  46991-3 0  9990
2 41180  47.0009 354.2112 0001777 297.2767  62.7936 14.56517437445173
ORBCOMM FM105           
1 41181U 15081C   24119.57771531  .00000761  00000+0  26434-3 0  9998
2 41181  47.0018 317.7134 0002298 262.2072  97.8547 14.44351670440794
ORBCOMM FM110           
1 41182U 15081D   24119.16051709  .00002078  00000+0  49948-3 0  9990
2 41182  47.0003  84.0719 0001448  36.2211 323.8772 14.56540955443808
ORBCOMM FM118           
1 41183U 15081E   24119.27498341  .00001748  00000+0  42625-3 0  9998
2 41183  47.0029  83.8358 0001543  32.7102 327.3878 14.56528652443928
ORBCOMM FM112           
1 41184U 15081F   24118.92497439  .00002781  00000+0  65567-3 0  9995
2 41184  46.9988 354.1852 0001434 279.2656  80.8067 14.56552987445094
ORBCOMM FM113           
1 41185U 15081G   24119.38227127  .00002432  00000+0  57823-3 0  9991
2 41185  47.0009 352.2948 0001149 295.7635  64.3131 14.56548689445148
